SAUDISAT 1C (SO-50)     
1 27607U 02058C   25110.06248279  .00002335  00000+0  30948-3 0  9993
2 27607  64.5558 356.4538 0050292 346.0519  13.9194 14.81450676201953
SAUDISAT 2              
1 28371U 04025F   25110.46358092  .00000700  00000+0  16854-3 0  9991
2 28371  98.5234  95.3129 0025427 152.6733 207.5807 14.56268525104255
SAUDISAT 3              
1 31118U 07012B   25110.42933121  .00000746  00000+0  12959-3 0  9993
2 31118  98.0949  57.1233 0015807 129.1256 231.1358 14.70991675965645
PISAT                   
1 41784U 16059B   25110.11569855  .00001898  00000+0  33851-3 0  9992
2 41784  97.8190 124.2237 0031173 115.2555 245.1886 14.67781473457659
FLYING LAPTOP           
1 42831U 17042G   25110.17486154  .00003186  00000+0  27079-3 0  9992
2 42831  97.4038 280.3114 0013130 117.7661 242.4895 14.98468407423056
SALSAT                  
1 46495U 20068K   25109.47847540  .00012335  00000+0  54507-3 0  9997
2 46495  97.8582  85.1898 0011122 350.6292   9.4734 15.21822595250758
